OSCAR 7 (AO-7)          
1 07530U 74089B   26193.28069648 -.00000028  00000+0  11475-3 0  9998
2 07530 101.9904 206.7888 0012657  83.7771 344.0955 12.53698497363662
PHASE 3B (AO-10)        
1 14129U 83058B   26190.70523784  .00000106  00000+0  00000+0 0  9990
2 14129  25.9319 215.8523 6003352 121.8543 310.3469  2.05870648295953
UOSAT 2 (UO-11)         
1 14781U 84021B   26192.85399957  .00000855  00000+0  92511-4 0  9990
2 14781  97.8073 158.1560 0009187 100.6765 259.5488 14.90844080260808
LUSAT (LO-19)           
1 20442U 90005G   26193.01956846  .00000049  00000+0  34039-4 0  9991
2 20442  98.8847 215.5087 0012426 130.0695 230.1580 14.34130163905958
EYESAT A (AO-27)        
1 22825U 93061C   26193.17239583  .00000034  00000+0  29730-4 0  9998
2 22825  98.6869 260.5755 0008923  34.2140 325.9616 14.30948567710572
ITAMSAT (IO-26)         
1 22826U 93061D   26193.14435021  .00000030  00000+0  28178-4 0  9992
2 22826  98.6817 260.4674 0009149  18.0358 342.1148 14.31376147710882
RADIO ROSTO (RS15)      
1 23439U 94085A   26193.21499331 -.00000025  00000+0  49439-3 0  9999
2 23439  64.8161 262.7407 0156800 359.2580   0.8090 11.27583511298728
JAS-2 (FO-29)           
1 24278U 96046B   26193.00474652  .00000020  00000+0  55356-4 0  9996
2 24278  98.5221  38.4749 0350496  32.2062 329.9970 13.53275381476520
TECHSAT 1B (GO-32)      
1 25397U 98043D   26192.93037106  .00000020  00000+0  28845-4 0  9991
2 25397  99.0082 186.3145 0002096 119.6916 240.4471 14.24432954454850
ISS (ZARYA)             
1 25544U 98067A   26193.15356419  .00004878  00000+0  96681-4 0  9995
2 25544  51.6303 176.5328 0006700 285.7692  74.2557 15.48987212575626
PCSAT (NO-44)           
1 26931U 01043C   26192.95435572  .00000047  00000+0  48416-4 0  9996
2 26931  67.0492 180.2118 0005952 266.3271  93.7150 14.31964242293993
SAUDISAT 1C (SO-50)     
1 27607U 02058C   26192.83511488  .00000404  00000+0  65677-4 0  9997
2 27607  64.5517  52.7226 0074622 257.8961 101.3778 14.83094671268113
CUTE-1 (CO-55)          
1 27844U 03031E   26193.25608136  .00000158  00000+0  87285-4 0  9991
2 27844  98.6742 201.5000 0010768 110.2037 250.0301 14.24350376195244
CUBESAT XI-IV (CO-57)   
1 27848U 03031J   26192.55431067  .00000130  00000+0  76240-4 0  9993
2 27848  98.6772 200.4999 0010408 128.9651 231.2457 14.23633286194846
MOZHAETS 4 (RS22)       
1 27939U 03042A   26193.34882240  .00000014  00000+0  10495-4 0  9998
2 27939  98.3476  18.4199 0010962 182.2562 298.3988 14.73509415219250
CUBESAT XI-V            
1 28895U 05043F   26192.38715503  .00000804  00000+0  13420-3 0  9990
2 28895  98.3011 348.5214 0015131 126.3821 233.8784 14.72696464105311
CUTE-1.7+APD II (CO-65) 
1 32785U 08021C   26193.17211471  .00003133  00000+0  19866-3 0  9993
2 32785  97.8286 175.1161 0007285 311.6931  48.3674 15.09682301988962
SEEDS II (CO-66)        
1 32791U 08021J   26192.54516377  .00010960  00000+0  34002-3 0  9998
2 32791  97.7522 191.6211 0002685 165.1600 194.9721 15.33584480991022
YUBILEINY (RS30)        
1 32953U 08025A   26193.20762050  .00000085  00000+0  54043-3 0  9991
2 32953  82.5054 339.8750 0018560 255.9580 103.9436 12.43180956822802
KKS-1 (KISEKI)          
1 33499U 09002H   26193.21857635  .00000676  00000+0  89586-4 0  9995
2 33499  98.1177 116.0575 0007179 199.1633 160.9311 14.83184935939901
SWISSCUBE               
1 35932U 09051B   26193.20904171  .00000502  00000+0  10865-3 0  9991
2 35932  98.4012 101.5313 0007715 127.0520 233.1388 14.62527427892815
BEESAT-1                
1 35933U 09051C   26192.68394636  .00000417  00000+0  93456-4 0  9995
2 35933  98.3940 100.5811 0005925 139.0777 221.0870 14.61758535892766
ITUPSAT1                
1 35935U 09051E   26192.97035851  .00000388  00000+0  90106-4 0  9996
2 35935  98.4023 100.0372 0007861 152.4089 207.7529 14.60475983892353
XIWANG-1 (HOPE-1)       
1 36122U 09072B   26193.32359095 -.00000160  00000+0 -30159-3 0  9998
2 36122 100.4028 146.7552 0007461 171.2603 188.8641 13.16438861796312
O/OREOS (USA 219)       
1 37224U 10062C   26192.97406233  .00001204  00000+0  11921-3 0  9994
2 37224  71.9695  24.1866 0013807  11.3955 348.7525 14.93844125120342
JUGNU                   
1 37839U 11058B   26193.07075447  .00000355  00000+0  45779-4 0  9998
2 37839  19.9591 157.2468 0018467 351.9537  74.6963 14.13782974762554
SRMSAT                  
1 37841U 11058D   26193.23869166  .00000350  00000+0  45879-4 0  9994
2 37841  19.9714 267.8422 0011853 118.8974 271.3920 14.11580711761369
STRAND-1                
1 39090U 13009E   26192.98048947  .00000155  00000+0  66460-4 0  9999
2 39090  98.3932  12.6059 0009239 149.9394 210.2325 14.37177734700626
ZACUBE-1 (TSHEPISOSAT)  
1 39417U 13066B   26192.93545885  .00001437  00000+0  11431-3 0  9994
2 39417  97.8011 155.3951 0043834 165.6614 194.5865 15.01320163684448
GOMX-1                  
1 39430U 13066Q   26193.31149380  .00000881  00000+0  13862-3 0  9994
2 39430  97.6477  32.1889 0128543 357.4914   2.5632 14.69538478673603
